{"type":"FeatureCollection","features":[{"type":"Feature","id":"distrito_municipal:D01","properties":{"id":"distrito_municipal:D01","codigo":"D01","nombre":"Distrito Norte (sintético)","tipo":"distrito_municipal","version_capa":"samples-sinteticas","fuente":"sintético"},"geometry":{"type":"Polygon","coordinates":[[[-63.2035843,-17.7867828],[-63.1847169,-17.7867828],[-63.1847169,-17.7596516],[-63.2035843,-17.7596516],[-63.2035843,-17.7867828]]]}},{"type":"Feature","id":"distrito_municipal:D02","properties":{"id":"distrito_municipal:D02","codigo":"D02","nombre":"Distrito Centro (sintético)","tipo":"distrito_municipal","version_capa":"samples-sinteticas","fuente":"sintético"},"geometry":{"type":"Polygon","coordinates":[[[-63.1847169,-17.7867828],[-63.1658494,-17.7867828],[-63.1658494,-17.7596516],[-63.1847169,-17.7596516],[-63.1847169,-17.7867828]]]}},{"type":"Feature","id":"distrito_municipal:D03","properties":{"id":"distrito_municipal:D03","codigo":"D03","nombre":"Distrito Sur (sintético)","tipo":"distrito_municipal","version_capa":"samples-sinteticas","fuente":"sintético"},"geometry":{"type":"Polygon","coordinates":[[[-63.1658494,-17.7867828],[-63.146982,-17.7867828],[-63.146982,-17.7596516],[-63.1658494,-17.7596516],[-63.1658494,-17.7867828]]]}}]}
