{"type":"FeatureCollection","features":[{"type":"Feature","id":"unidad_vecinal:UV-101","properties":{"id":"unidad_vecinal:UV-101","codigo":"UV-101","nombre":"Unidad Vecinal 101 (sintética)","tipo":"unidad_vecinal","version_capa":"samples-sinteticas","fuente":"sintético","distrito_id":"distrito_municipal:D01"},"geometry":{"type":"Polygon","coordinates":[[[-63.2035843,-17.7867828],[-63.1941506,-17.7867828],[-63.1941506,-17.7732172],[-63.2035843,-17.7732172],[-63.2035843,-17.7867828]]]}},{"type":"Feature","id":"unidad_vecinal:UV-102","properties":{"id":"unidad_vecinal:UV-102","codigo":"UV-102","nombre":"Unidad Vecinal 102 (sintética)","tipo":"unidad_vecinal","version_capa":"samples-sinteticas","fuente":"sintético","distrito_id":"distrito_municipal:D01"},"geometry":{"type":"Polygon","coordinates":[[[-63.2035843,-17.7732172],[-63.1941506,-17.7732172],[-63.1941506,-17.7596516],[-63.2035843,-17.7596516],[-63.2035843,-17.7732172]]]}},{"type":"Feature","id":"unidad_vecinal:UV-103","properties":{"id":"unidad_vecinal:UV-103","codigo":"UV-103","nombre":"Unidad Vecinal 103 (sintética)","tipo":"unidad_vecinal","version_capa":"samples-sinteticas","fuente":"sintético","distrito_id":"distrito_municipal:D01"},"geometry":{"type":"Polygon","coordinates":[[[-63.1941506,-17.7867828],[-63.1847169,-17.7867828],[-63.1847169,-17.7732172],[-63.1941506,-17.7732172],[-63.1941506,-17.7867828]]]}},{"type":"Feature","id":"unidad_vecinal:UV-104","properties":{"id":"unidad_vecinal:UV-104","codigo":"UV-104","nombre":"Unidad Vecinal 104 (sintética)","tipo":"unidad_vecinal","version_capa":"samples-sinteticas","fuente":"sintético","distrito_id":"distrito_municipal:D01"},"geometry":{"type":"Polygon","coordinates":[[[-63.1941506,-17.7732172],[-63.1847169,-17.7732172],[-63.1847169,-17.7596516],[-63.1941506,-17.7596516],[-63.1941506,-17.7732172]]]}},{"type":"Feature","id":"unidad_vecinal:UV-105","properties":{"id":"unidad_vecinal:UV-105","codigo":"UV-105","nombre":"Unidad Vecinal 105 (sintética)","tipo":"unidad_vecinal","version_capa":"samples-sinteticas","fuente":"sintético","distrito_id":"distrito_municipal:D02"},"geometry":{"type":"Polygon","coordinates":[[[-63.1847169,-17.7867828],[-63.1752831,-17.7867828],[-63.1752831,-17.7732172],[-63.1847169,-17.7732172],[-63.1847169,-17.7867828]]]}},{"type":"Feature","id":"unidad_vecinal:UV-106","properties":{"id":"unidad_vecinal:UV-106","codigo":"UV-106","nombre":"Unidad Vecinal 106 (sintética)","tipo":"unidad_vecinal","version_capa":"samples-sinteticas","fuente":"sintético","distrito_id":"distrito_municipal:D02"},"geometry":{"type":"Polygon","coordinates":[[[-63.1847169,-17.7732172],[-63.1752831,-17.7732172],[-63.1752831,-17.7596516],[-63.1847169,-17.7596516],[-63.1847169,-17.7732172]]]}},{"type":"Feature","id":"unidad_vecinal:UV-107","properties":{"id":"unidad_vecinal:UV-107","codigo":"UV-107","nombre":"Unidad Vecinal 107 (sintética)","tipo":"unidad_vecinal","version_capa":"samples-sinteticas","fuente":"sintético","distrito_id":"distrito_municipal:D02"},"geometry":{"type":"Polygon","coordinates":[[[-63.1752831,-17.7867828],[-63.1658494,-17.7867828],[-63.1658494,-17.7732172],[-63.1752831,-17.7732172],[-63.1752831,-17.7867828]]]}},{"type":"Feature","id":"unidad_vecinal:UV-108","properties":{"id":"unidad_vecinal:UV-108","codigo":"UV-108","nombre":"Unidad Vecinal 108 (sintética)","tipo":"unidad_vecinal","version_capa":"samples-sinteticas","fuente":"sintético","distrito_id":"distrito_municipal:D02"},"geometry":{"type":"Polygon","coordinates":[[[-63.1752831,-17.7732172],[-63.1658494,-17.7732172],[-63.1658494,-17.7596516],[-63.1752831,-17.7596516],[-63.1752831,-17.7732172]]]}},{"type":"Feature","id":"unidad_vecinal:UV-109","properties":{"id":"unidad_vecinal:UV-109","codigo":"UV-109","nombre":"Unidad Vecinal 109 (sintética)","tipo":"unidad_vecinal","version_capa":"samples-sinteticas","fuente":"sintético","distrito_id":"distrito_municipal:D03"},"geometry":{"type":"Polygon","coordinates":[[[-63.1658494,-17.7867828],[-63.1564157,-17.7867828],[-63.1564157,-17.7732172],[-63.1658494,-17.7732172],[-63.1658494,-17.7867828]]]}},{"type":"Feature","id":"unidad_vecinal:UV-110","properties":{"id":"unidad_vecinal:UV-110","codigo":"UV-110","nombre":"Unidad Vecinal 110 (sintética)","tipo":"unidad_vecinal","version_capa":"samples-sinteticas","fuente":"sintético","distrito_id":"distrito_municipal:D03"},"geometry":{"type":"Polygon","coordinates":[[[-63.1658494,-17.7732172],[-63.1564157,-17.7732172],[-63.1564157,-17.7596516],[-63.1658494,-17.7596516],[-63.1658494,-17.7732172]]]}},{"type":"Feature","id":"unidad_vecinal:UV-111","properties":{"id":"unidad_vecinal:UV-111","codigo":"UV-111","nombre":"Unidad Vecinal 111 (sintética)","tipo":"unidad_vecinal","version_capa":"samples-sinteticas","fuente":"sintético","distrito_id":"distrito_municipal:D03"},"geometry":{"type":"Polygon","coordinates":[[[-63.1564157,-17.7867828],[-63.146982,-17.7867828],[-63.146982,-17.7732172],[-63.1564157,-17.7732172],[-63.1564157,-17.7867828]]]}},{"type":"Feature","id":"unidad_vecinal:UV-112","properties":{"id":"unidad_vecinal:UV-112","codigo":"UV-112","nombre":"Unidad Vecinal 112 (sintética)","tipo":"unidad_vecinal","version_capa":"samples-sinteticas","fuente":"sintético","distrito_id":"distrito_municipal:D03"},"geometry":{"type":"Polygon","coordinates":[[[-63.1564157,-17.7732172],[-63.146982,-17.7732172],[-63.146982,-17.7596516],[-63.1564157,-17.7596516],[-63.1564157,-17.7732172]]]}}]}
